{
  "norad_id": 44637,
  "name": "TJS-4",
  "history": [
    {
      "epoch": "2026-03-27T13:30:40.220064Z",
      "apogee_km": 35798.19982442585,
      "perigee_km": 35778.22140892507,
      "latitude_deg": -0.03336922440264481,
      "longitude_deg": 83.49543618510982,
      "height_km": 35786.30670842052,
      "semi_major_axis_km": 42166.34761667546,
      "eccentricity": 0.0002369,
      "inclination_deg": 0.0142,
      "raan_deg": 183.8744,
      "arg_perigee_deg": 205.5226,
      "mean_anomaly_deg": 81.7124,
      "mean_motion_rev_day": 1.00266022
    }
  ]
}